{
  "type": "FeatureCollection",
  "features": [
    {
      "type": "Feature",
      "properties": {
        "norad_id": 28054,
        "name": "DMSP 5D-3 F16 (USA 172)",
        "group": "weather",
        "lat": 2.6322768364658353,
        "lon": 0.8044418993095923,
        "alt_km": 842.8031283230084,
        "timestamp": "2025-12-09T18:55:16.881047+00:00",
        "meta_object_name": "DMSP 5D-3 F16 (USA 172)",
        "meta_object_id": "2003-048A",
        "meta_epoch": "2025-12-09T14:19:18.983136",
        "meta_mean_motion": 14.14422633,
        "meta_eccentricity": 0.00066109,
        "meta_inclination": 99.0048,
        "meta_ra_of_asc_node": 1.029,
        "meta_arg_of_pericenter": 330.6587,
        "meta_mean_anomaly": 136.7966,
        "meta_ephemeris_type": 0,
        "meta_classification_type": "U",
        "meta_norad_cat_id": 28054,
        "meta_element_set_no": 999,
        "meta_rev_at_epoch": 14268,
        "meta_bstar": 0.00014288889,
        "meta_mean_motion_dot": 2.28e-06,
        "meta_mean_motion_ddot": 0,
        "tle_line1": "1 28054U 03048A   25343.59674749  .00000228  00000+0  14289-3 0  9990",
        "tle_line2": "2 28054  99.0048   1.0290 0006610 330.6587 136.7966 14.14422633142687"
      },
      "geometry": {
        "type": "Point",
        "coordinates": [
          0.8044418993095923,
          2.6322768364658353
        ]
      }
    },
    {
      "type": "Feature",
      "properties": {
        "norad_id": 28912,
        "name": "METEOSAT-9 (MSG-2)",
        "group": "weather",
        "lat": -1.189025907387238,
        "lon": 48.33679409330205,
        "alt_km": 35800.915510905805,
        "timestamp": "2025-12-09T18:55:16.881094+00:00",
        "meta_object_name": "METEOSAT-9 (MSG-2)",
        "meta_object_id": "2005-049B",
        "meta_epoch": "2025-12-08T20:40:05.248704",
        "meta_mean_motion": 1.00274262,
        "meta_eccentricity": 0.000384,
        "meta_inclination": 8.931,
        "meta_ra_of_asc_node": 56.0124,
        "meta_arg_of_pericenter": 190.0622,
        "meta_mean_anomaly": 187.4345,
        "meta_ephemeris_type": 0,
        "meta_classification_type": "U",
        "meta_norad_cat_id": 28912,
        "meta_element_set_no": 999,
        "meta_rev_at_epoch": 509,
        "meta_bstar": 0,
        "meta_mean_motion_dot": 1.23e-06,
        "meta_mean_motion_ddot": 0,
        "tle_line1": "1 28912U 05049B   25342.86117186  .00000123  00000+0  00000+0 0  9998",
        "tle_line2": "2 28912   8.9310  56.0124 0003840 190.0622 187.4345  1.00274262  5098"
      },
      "geometry": {
        "type": "Point",
        "coordinates": [
          48.33679409330205,
          -1.189025907387238
        ]
      }
    },
    {
      "type": "Feature",
      "properties": {
        "norad_id": 29522,
        "name": "DMSP 5D-3 F17 (USA 191)",
        "group": "weather",
        "lat": -60.802113229318955,
        "lon": 5.216034418377145,
        "alt_km": 846.7633859177868,
        "timestamp": "2025-12-09T18:55:16.881111+00:00",
        "meta_object_name": "DMSP 5D-3 F17 (USA 191)",
        "meta_object_id": "2006-050A",
        "meta_epoch": "2025-12-09T14:07:21.427680",
        "meta_mean_motion": 14.14917593,
        "meta_eccentricity": 0.00092946,
        "meta_inclination": 98.7393,
        "meta_ra_of_asc_node": 349.0431,
        "meta_arg_of_pericenter": 234.6073,
        "meta_mean_anomaly": 125.4233,
        "meta_ephemeris_type": 0,
        "meta_classification_type": "U",
        "meta_norad_cat_id": 29522,
        "meta_element_set_no": 999,
        "meta_rev_at_epoch": 98560,
        "meta_bstar": 0.00017459592,
        "meta_mean_motion_dot": 2.94e-06,
        "meta_mean_motion_ddot": 0,
        "tle_line1": "1 29522U 06050A   25343.58844245  .00000294  00000+0  17460-3 0  9993",
        "tle_line2": "2 29522  98.7393 349.0431 0009294 234.6073 125.4233 14.14917593985606"
      },
      "geometry": {
        "type": "Point",
        "coordinates": [
          5.216034418377145,
          -60.802113229318955
        ]
      }
    },
    {
      "type": "Feature",
      "properties": {
        "norad_id": 32958,
        "name": "FENGYUN 3A",
        "group": "weather",
        "lat": -36.40009308020929,
        "lon": -70.1639470131128,
        "alt_km": 827.4981335344246,
        "timestamp": "2025-12-09T18:55:16.881124+00:00",
        "meta_object_name": "FENGYUN 3A",
        "meta_object_id": "2008-026A",
        "meta_epoch": "2025-12-09T14:01:10.261056",
        "meta_mean_motion": 14.19513013,
        "meta_eccentricity": 0.00080396,
        "meta_inclination": 98.6694,
        "meta_ra_of_asc_node": 283.1775,
        "meta_arg_of_pericenter": 320.3874,
        "meta_mean_anomaly": 39.6714,
        "meta_ephemeris_type": 0,
        "meta_classification_type": "U",
        "meta_norad_cat_id": 32958,
        "meta_element_set_no": 999,
        "meta_rev_at_epoch": 90850,
        "meta_bstar": 0.00012841113,
        "meta_mean_motion_dot": 2.27e-06,
        "meta_mean_motion_ddot": 0,
        "tle_line1": "1 32958U 08026A   25343.58414654  .00000227  00000+0  12841-3 0  9996",
        "tle_line2": "2 32958  98.6694 283.1775 0008039 320.3874  39.6714 14.19513013908501"
      },
      "geometry": {
        "type": "Point",
        "coordinates": [
          -70.1639470131128,
          -36.40009308020929
        ]
      }
    },
    {
      "type": "Feature",
      "properties": {
        "norad_id": 35491,
        "name": "GOES 14",
        "group": "weather",
        "lat": 0.20966095319962963,
        "lon": -105.69184458240126,
        "alt_km": 35769.10385410157,
        "timestamp": "2025-12-09T18:55:16.881140+00:00",
        "meta_object_name": "GOES 14",
        "meta_object_id": "2009-033A",
        "meta_epoch": "2025-12-09T13:13:47.949024",
        "meta_mean_motion": 1.00273221,
        "meta_eccentricity": 0.00040286,
        "meta_inclination": 1.1914,
        "meta_ra_of_asc_node": 85.443,
        "meta_arg_of_pericenter": 154.9099,
        "meta_mean_anomaly": 288.3378,
        "meta_ephemeris_type": 0,
        "meta_classification_type": "U",
        "meta_norad_cat_id": 35491,
        "meta_element_set_no": 999,
        "meta_rev_at_epoch": 469,
        "meta_bstar": 0,
        "meta_mean_motion_dot": -6.6e-07,
        "meta_mean_motion_ddot": 0,
        "tle_line1": "1 35491U 09033A   25343.55124941 -.00000066  00000+0  00000+0 0  9996",
        "tle_line2": "2 35491   1.1914  85.4430 0004028 154.9099 288.3378  1.00273221  4691"
      },
      "geometry": {
        "type": "Point",
        "coordinates": [
          -105.69184458240126,
          0.20966095319962963
        ]
      }
    },
    {
      "type": "Feature",
      "properties": {
        "norad_id": 35951,
        "name": "DMSP 5D-3 F18 (USA 210)",
        "group": "weather",
        "lat": 12.700402260131815,
        "lon": 142.22384193629927,
        "alt_km": 845.2116917638477,
        "timestamp": "2025-12-09T18:55:16.881153+00:00",
        "meta_object_name": "DMSP 5D-3 F18 (USA 210)",
        "meta_object_id": "2009-057A",
        "meta_epoch": "2025-12-09T14:44:27.504672",
        "meta_mean_motion": 14.14766455,
        "meta_eccentricity": 0.00120983,
        "meta_inclination": 98.8831,
        "meta_ra_of_asc_node": 320.0307,
        "meta_arg_of_pericenter": 70.9136,
        "meta_mean_anomaly": 289.3346,
        "meta_ephemeris_type": 0,
        "meta_classification_type": "U",
        "meta_norad_cat_id": 35951,
        "meta_element_set_no": 999,
        "meta_rev_at_epoch": 83278,
        "meta_bstar": 0.00025774271,
        "meta_mean_motion_dot": 4.53e-06,
        "meta_mean_motion_ddot": 0,
        "tle_line1": "1 35951U 09057A   25343.61420723  .00000453  00000+0  25774-3 0  9995",
        "tle_line2": "2 35951  98.8831 320.0307 0012098  70.9136 289.3346 14.14766455832789"
      },
      "geometry": {
        "type": "Point",
        "coordinates": [
          142.22384193629927,
          12.700402260131815
        ]
      }
    },
    {
      "type": "Feature",
      "properties": {
        "norad_id": 36411,
        "name": "EWS-G2 (GOES 15)",
        "group": "weather",
        "lat": -0.281988723674857,
        "lon": 64.04413168115362,
        "alt_km": 35811.00420408018,
        "timestamp": "2025-12-09T18:55:16.881186+00:00",
        "meta_object_name": "EWS-G2 (GOES 15)",
        "meta_object_id": "2010-008A",
        "meta_epoch": "2025-12-09T13:51:58.495968",
        "meta_mean_motion": 1.00269024,
        "meta_eccentricity": 0.00059144,
        "meta_inclination": 0.8061,
        "meta_ra_of_asc_node": 86.0543,
        "meta_arg_of_pericenter": 173.5517,
        "meta_mean_anomaly": 88.3883,
        "meta_ephemeris_type": 0,
        "meta_classification_type": "U",
        "meta_norad_cat_id": 36411,
        "meta_element_set_no": 999,
        "meta_rev_at_epoch": 5773,
        "meta_bstar": 0,
        "meta_mean_motion_dot": 4e-07,
        "meta_mean_motion_ddot": 0,
        "tle_line1": "1 36411U 10008A   25343.57776037  .00000040  00000+0  00000+0 0  9995",
        "tle_line2": "2 36411   0.8061  86.0543 0005914 173.5517  88.3883  1.00269024 57730"
      },
      "geometry": {
        "type": "Point",
        "coordinates": [
          64.04413168115362,
          -0.281988723674857
        ]
      }
    }
  ]
}